[{"city": "Αγρινιο", "zip": 30131}, {"city": "Αγιος Βλασιος", "zip": 30021}, {"city": "Αγιος Κωνσταντινος", "zip": 30027}, {"city": "Αγρινιο", "zip": 30150}, {"city": "Αιτωλικο", "zip": 30400}, {"city": "Αμφιλοχια", "zip": 30500}, {"city": "Αντιρριο", "zip": 30020}, {"city": "Ανω Χωρα", "zip": 30023}, {"city": "Αστακος", "zip": 30006}, {"city": "Βονιτσα", "zip": 30002}, {"city": "Γαβαλου", "zip": 30015}, {"city": "Εμπεσος", "zip": 30017}, {"city": "Ευηνοχωρι", "zip": 30014}, {"city": "Ευπαλιο", "zip": 33056}, {"city": "Θερμο", "zip": 30008}, {"city": "Καινουργιο", "zip": 30005}, {"city": "Κατουνα", "zip": 30004}, {"city": "Κομποτι", "zip": 47040}, {"city": "Λευκαδα", "zip": 31100}, {"city": "Ματαραγκα", "zip": 30011}, {"city": "Μεσολογγι", "zip": 30200}, {"city": "Μυτικας", "zip": 30019}, {"city": "Ναυπακτος", "zip": 30300}, {"city": "Νεοχωρι Αιτωλοακαρνανιας", "zip": 30001}, {"city": "Παλαιρος", "zip": 30012}, {"city": "Παναιτωλιο", "zip": 30003}, {"city": "Παραβολα", "zip": 30010}, {"city": "Πλατανος Αιτωλοακαρνανιας", "zip": 30022}, {"city": "Φυτειες", "zip": 30009}, {"city": "Αργος", "zip": 21231}, {"city": "Αγια Τριαδα", "zip": 21055}, {"city": "Αργος", "zip": 21250}, {"city": "Ερμιονη", "zip": 21051}, {"city": "Κρανιδι", "zip": 21300}, {"city": "Λυγουριο", "zip": 21052}, {"city": "Ναυπλιο", "zip": 21100}, {"city": "Νεμεα", "zip": 20500}, {"city": "Παλαια Επιδαυρος", "zip": 21059}, {"city": "Τολο", "zip": 21056}, {"city": "Τριπολη", "zip": 22150}, {"city": "Τριπολη", "zip": 22131}, {"city": "Ανδριτσαινα", "zip": 27061}, {"city": "Αστρος", "zip": 22001}, {"city": "Βυτινα", "zip": 22010}, {"city": "Δαφνη Αχαϊας", "zip": 25004}, {"city": "Δημητσανα", "zip": 22007}, {"city": "Κατω Ασεα", "zip": 22027}, {"city": "Κοντοβαζαινα", "zip": 22015}, {"city": "Λεβιδι", "zip": 22002}, {"city": "Λεωνιδι", "zip": 22300}, {"city": "Μεγαλοπολη", "zip": 22200}, {"city": "Παλουμπα", "zip": 22028}, {"city": "Σκαλα", "zip": 23051}, {"city": "Σταδιο", "zip": 22012}, {"city": "Τριπολη", "zip": 22150}, {"city": "Τροπαια", "zip": 22008}, {"city": "Τυροσαπουνακαιικα", "zip": 22029}, {"city": "Αρτα", "zip": 47132}, {"city": "Αγναντα", "zip": 47043}, {"city": "Ανω Καλεντινη", "zip": 47044}, {"city": "Αρτα", "zip": 47150}, {"city": "Βουργαρελι", "zip": 47045}, {"city": "Κομποτι", "zip": 47040}, {"city": "Μηλιανα", "zip": 47047}, {"city": "Νεοχωρι Αρτας", "zip": 47041}, {"city": "Πραμαντα", "zip": 44001}, {"city": "Φιλιππιαδα", "zip": 48200}, {"city": "Αθηνα", "zip": 13342}, {"city": "Πειραιας", "zip": 18122}, {"city": "Αιγινα", "zip": 18010}, {"city": "Αναβυσσος", "zip": 19013}, {"city": "Αρτεμιδα", "zip": 19016}, {"city": "Ασπροπυργος", "zip": 19300}, {"city": "Αυλωνα", "zip": 19011}, {"city": "Βιλια", "zip": 19012}, {"city": "Ελευσινα", "zip": 19200}, {"city": "Ερυθρες", "zip": 19008}, {"city": "Καλυβια Θορικου", "zip": 19010}, {"city": "Καπανδριτι", "zip": 19014}, {"city": "Κερατεα", "zip": 19001}, {"city": "Κυθηρα", "zip": 80100}, {"city": "Λαυριο", "zip": 19500}, {"city": "Μαγουλα", "zip": 19018}, {"city": "Μανδρα", "zip": 19600}, {"city": "Μαραθωνας", "zip": 19007}, {"city": "Μαρκοπουλο", "zip": 19003}, {"city": "Μεγαρα", "zip": 19100}, {"city": "Μεθανα", "zip": 18030}, {"city": "Νεα Μακρη", "zip": 19005}, {"city": "Νεα Περαμος Αττικης", "zip": 19006}, {"city": "Παιανια", "zip": 19002}, {"city": "Πορος Τροιζηνιας", "zip": 18020}, {"city": "Ραφηνα", "zip": 19009}, {"city": "Σαλαμινα", "zip": 18950}, {"city": "Σπατα", "zip": 19004}, {"city": "Σπετσες", "zip": 18050}, {"city": "Υδρα", "zip": 18040}, {"city": "Ωρωπος", "zip": 19015}, {"city": "Πατρα", "zip": 26331}, {"city": "Αιγιο", "zip": 25100}, {"city": "Ακρατα", "zip": 25006}, {"city": "Βραχναιικα", "zip": 25002}, {"city": "Δαφνη Καλαβρυτων", "zip": 25004}, {"city": "Διακοπτο", "zip": 25003}, {"city": "Ερυμανθεια", "zip": 25015}, {"city": "Καλαβρυτα", "zip": 25001}, {"city": "Κατω Αχαϊα", "zip": 25200}, {"city": "Κλειτορια", "zip": 25007}, {"city": "Πατρα", "zip": 26500}, {"city": "Σ. Σ. Βαρδας", "zip": 27052}, {"city": "Χαλανδριτσα", "zip": 25008}, {"city": "Λεβαδεια", "zip": 32131}, {"city": "Αλιαρτος", "zip": 32001}, {"city": "Αραχοβα", "zip": 32004}, {"city": "Βαγια", "zip": 32002}, {"city": "Διστομο", "zip": 32005}, {"city": "Θηβα", "zip": 32200}, {"city": "Κατω Τιθορεα", "zip": 35015}, {"city": "Κυριακι", "zip": 32006}, {"city": "Λεβαδεια", "zip": 32150}, {"city": "Ορχομενος", "zip": 32300}, {"city": "Παραλια Διστομου", "zip": 32003}, {"city": "Σχηματαρι", "zip": 32009}, {"city": "Αγιος Γεωργιος", "zip": 51030}, {"city": "Γρεβενα", "zip": 51100}, {"city": "Δεσκατη", "zip": 51200}, {"city": "Πενταλοφος", "zip": 50007}, {"city": "Δραμα", "zip": 66131}, {"city": "Δοξατο", "zip": 66300}, {"city": "Δραμα", "zip": 66150}, {"city": "Καλαμπακι", "zip": 66031}, {"city": "Κατω Νευροκοπι", "zip": 66033}, {"city": "Νεα Ζιχνη", "zip": 62042}, {"city": "Παρανεστι", "zip": 66035}, {"city": "Προσοτσανη", "zip": 66200}, {"city": "Ροδος", "zip": 85131}, {"city": "Αγαθονησι", "zip": 85003}, {"city": "Αντιμαχεια", "zip": 85302}, {"city": "Αρχαγγελος", "zip": 85102}, {"city": "Αστυπαλαια", "zip": 85900}, {"city": "Αφαντου", "zip": 85103}, {"city": "Γενναδι", "zip": 85109}, {"city": "Εμπωνας", "zip": 85108}, {"city": "Ιαλυσος", "zip": 85101}, {"city": "Καλυθιες", "zip": 85105}, {"city": "Καλυμνος", "zip": 85200}, {"city": "Καρπαθος", "zip": 85700}, {"city": "Κασος", "zip": 85800}, {"city": "Κεφαλος", "zip": 85301}, {"city": "Κρεμαστη", "zip": 85104}, {"city": "Κως", "zip": 85300}, {"city": "Λειψοι", "zip": 85001}, {"city": "Λερος", "zip": 85400}, {"city": "Λινδος", "zip": 85107}, {"city": "Μεγιστη", "zip": 85111}, {"city": "Νισυρος", "zip": 85303}, {"city": "Παραδεισι", "zip": 85106}, {"city": "Πατμος", "zip": 85500}, {"city": "Ροδος", "zip": 85150}, {"city": "Συμη", "zip": 85600}, {"city": "Τηλος", "zip": 85002}, {"city": "Χαλκη", "zip": 85110}, {"city": "Αλεξανδρουπολη", "zip": 68132}, {"city": "Αλεξανδρουπολη", "zip": 68150}, {"city": "Διδυμοτειχο", "zip": 68300}, {"city": "Δικαια", "zip": 68007}, {"city": "Κυπρινος", "zip": 68006}, {"city": "Λαβαρα", "zip": 68004}, {"city": "Μεταξαδες", "zip": 68010}, {"city": "Ορεστιαδα", "zip": 68200}, {"city": "Σαμοθρακη", "zip": 68002}, {"city": "Σαπες", "zip": 69300}, {"city": "Σουφλι", "zip": 68400}, {"city": "Τυχερο", "zip": 68003}, {"city": "Φερες", "zip": 68500}, {"city": "Χαλκιδα", "zip": 34132}, {"city": "Αλιβερι", "zip": 34500}, {"city": "Αμαρυνθος", "zip": 34006}, {"city": "Αυλωναρι", "zip": 34009}, {"city": "Βασιλικο", "zip": 34002}, {"city": "Ερετρια", "zip": 34008}, {"city": "Ιστιαια", "zip": 34200}, {"city": "Καρυστος", "zip": 34001}, {"city": "Κυμη", "zip": 34003}, {"city": "Λιμνη", "zip": 34005}, {"city": "Λουτρα Αιδηψου", "zip": 34300}, {"city": "Μαντουδι", "zip": 34004}, {"city": "Μαρμαρι", "zip": 34013}, {"city": "Νεα Αρτακη", "zip": 34600}, {"city": "Νεα Στυρα", "zip": 34015}, {"city": "Σκυρος", "zip": 34007}, {"city": "Χαλκιδα", "zip": 34150}, {"city": "Ψαχνα", "zip": 34400}, {"city": "Γρανιτσα", "zip": 36072}, {"city": "Καρδιτσα", "zip": 43150}, {"city": "Καρπενησι", "zip": 36100}, {"city": "Κερασοχωρι", "zip": 36071}, {"city": "Φουρνα", "zip": 36080}, {"city": "Ζακυνθος", "zip": 29100}, {"city": "Κατασταρι", "zip": 29090}, {"city": "Μαχαιραδο", "zip": 29092}, {"city": "Πυργος", "zip": 27131}, {"city": "Αμαλιαδα", "zip": 27200}, {"city": "Ανδραβιδα", "zip": 27051}, {"city": "Ανδριτσαινα", "zip": 27061}, {"city": "Αρχαια Ολυμπια", "zip": 27065}, {"city": "Βαρθολομιο", "zip": 27050}, {"city": "Γαστουνη", "zip": 27300}, {"city": "Εφυρα", "zip": 27069}, {"city": "Ζαχαρω", "zip": 27054}, {"city": "Καρατουλας", "zip": 27064}, {"city": "Κατακολο", "zip": 27067}, {"city": "Κρεστενα", "zip": 27055}, {"city": "Λαλας", "zip": 27066}, {"city": "Λαμπεια", "zip": 27063}, {"city": "Λεχαινα", "zip": 27053}, {"city": "Νεα Φιγαλεια", "zip": 27056}, {"city": "Πυργος Ηλειας", "zip": 27150}, {"city": "Σ. Σ. Βαρδας", "zip": 27052}, {"city": "Βεροια", "zip": 59132}, {"city": "Αλεξανδρεια", "zip": 59300}, {"city": "Βεροια", "zip": 59100}, {"city": "Κοπανος", "zip": 59035}, {"city": "Μελικη", "zip": 59031}, {"city": "Ναουσα", "zip": 59200}, {"city": "Ηρακλειο", "zip": 71202}, {"city": "Αγια Βαρβαρα", "zip": 70003}, {"city": "Αγιοι Δεκα", "zip": 70012}, {"city": "Αγιος Μυρωνας", "zip": 70013}, {"city": "Ανω Βιαννος", "zip": 70004}, {"city": "Ανωγεια", "zip": 74051}, {"city": "Αρκαλοχωρι", "zip": 70300}, {"city": "Αρχανες", "zip": 70100}, {"city": "Ασημι", "zip": 70016}, {"city": "Γαζι", "zip": 71414}, {"city": "Επισκοπη Ηρακλειου", "zip": 70008}, {"city": "Ηρακλειο Κρητης", "zip": 71500}, {"city": "Καστελλι", "zip": 70006}, {"city": "Λιμενας Χερσονησου", "zip": 70014}, {"city": "Μαλια", "zip": 70007}, {"city": "Μοιρες", "zip": 70400}, {"city": "Μοχος", "zip": 70005}, {"city": "Πυργος Ηρακλειου", "zip": 70010}, {"city": "Τυμπακι", "zip": 70200}, {"city": "Ζιτσα", "zip": 44003}, {"city": "Ηγουμενιτσα", "zip": 46100}, {"city": "Μαργαριτι", "zip": 46030}, {"city": "Παραμυθια", "zip": 46200}, {"city": "Φιλιατες", "zip": 46300}, {"city": "Θεσσαλονικη", "zip": 54250}, {"city": "Αγιος Αθανασιος", "zip": 57003}, {"city": "Ασβεστοχωρι", "zip": 57010}, {"city": "Ασπροβαλτα", "zip": 57021}, {"city": "Βασιλικα", "zip": 57006}, {"city": "Γεφυρα Θεσσαλονικης", "zip": 57011}, {"city": "Επανομη", "zip": 57500}, {"city": "Ευκαρπια", "zip": 56450}, {"city": "Ζαγκλιβερι", "zip": 57012}, {"city": "Θερμαϊκος", "zip": 57019}, {"city": "Θερμη", "zip": 57000}, {"city": "Θεσσαλονικη", "zip": 54500}, {"city": "Ιωνια Θεσσαλονικης", "zip": 57008}, {"city": "Καλοχωρι", "zip": 57009}, {"city": "Κουφαλια", "zip": 57100}, {"city": "Λαγκαδας", "zip": 57200}, {"city": "Νεα Μηχανιωνα", "zip": 57004}, {"city": "Πολιχνη", "zip": 56550}, {"city": "Σινδος", "zip": 57400}, {"city": "Σοχος", "zip": 57002}, {"city": "Σταυρος Θεσσαλονικης", "zip": 57014}, {"city": "Χαλαστρα", "zip": 57300}, {"city": "Χαλκηδονα", "zip": 57007}, {"city": "Ωραιοκαστρο", "zip": 57013}, {"city": "Ιωαννινα", "zip": 45222}, {"city": "Αγναντα", "zip": 47043}, {"city": "Γρεβενιτιο", "zip": 44014}, {"city": "Δελβινακι", "zip": 44002}, {"city": "Δολιανα", "zip": 44004}, {"city": "Ζιτσα", "zip": 44003}, {"city": "Θεσπρωτικο", "zip": 48300}, {"city": "Ιωαννινα", "zip": 45500}, {"city": "Καλεντζι", "zip": 44013}, {"city": "Κονιτσα", "zip": 44100}, {"city": "Λουρος", "zip": 48061}, {"city": "Μετσοβο", "zip": 44200}, {"city": "Παραμυθια", "zip": 46200}, {"city": "Πραμαντα", "zip": 44001}, {"city": "Τσεπελοβο", "zip": 44010}, {"city": "Φιλιππιαδα", "zip": 48200}, {"city": "Καβαλα", "zip": 65404}, {"city": "Ελευθερουπολη", "zip": 64100}, {"city": "Θασος", "zip": 64004}, {"city": "Καβαλα", "zip": 65500}, {"city": "Κεχροκαμπος", "zip": 64009}, {"city": "Κρηνιδες", "zip": 64003}, {"city": "Λιμεναρια", "zip": 64002}, {"city": "Μουσθενη", "zip": 64008}, {"city": "Νεα Καρβαλη", "zip": 64006}, {"city": "Νεα Περαμος Καβαλας", "zip": 64007}, {"city": "Νικησιανη", "zip": 64001}, {"city": "Πρινος", "zip": 64010}, {"city": "Χρυσουπολη", "zip": 64200}, {"city": "Καρδιτσα", "zip": 43132}, {"city": "Αγναντερο", "zip": 43061}, {"city": "Καρδιτσα", "zip": 43150}, {"city": "Λεονταρι", "zip": 43063}, {"city": "Μουζακι", "zip": 43060}, {"city": "Παλαμας", "zip": 43200}, {"city": "Σοφαδες", "zip": 43300}, {"city": "Αργος Ορεστικο", "zip": 52200}, {"city": "Δισπηλιο", "zip": 52057}, {"city": "Εμποριο Κοζανης", "zip": 50005}, {"city": "Καστορια", "zip": 52100}, {"city": "Κορησος", "zip": 52052}, {"city": "Μακροχωρι Καστοριας", "zip": 52055}, {"city": "Μαυροχωρι", "zip": 52056}, {"city": "Μεσοποταμια", "zip": 52050}, {"city": "Νεστοριο", "zip": 52051}, {"city": "Πενταλοφος", "zip": 50007}, {"city": "Κερκυρα", "zip": 49131}, {"city": "Αχιλλειο", "zip": 49084}, {"city": "Γαϊος", "zip": 49082}, {"city": "Καρουσαδες", "zip": 49081}, {"city": "Κερκυρα", "zip": 49100}, {"city": "Λευκιμμη", "zip": 49080}, {"city": "Τζαβρος", "zip": 49083}, {"city": "Αγια Ευφημια", "zip": 28081}, {"city": "Αργοστολι", "zip": 28100}, {"city": "Ιθακη", "zip": 28300}, {"city": "Ληξουρι", "zip": 28200}, {"city": "Πορος Κεφαλληνιας", "zip": 28086}, {"city": "Σαμη", "zip": 28080}, {"city": "Φισκαρδο", "zip": 28084}, {"city": "Γεφυρα Θεσσαλονικης", "zip": 57011}, {"city": "Γουμενισσα", "zip": 61300}, {"city": "Ευρωπος", "zip": 61007}, {"city": "Κατω Ποροϊα", "zip": 62055}, {"city": "Κιλκις", "zip": 61100}, {"city": "Λαγκαδας", "zip": 57200}, {"city": "Πολυκαστρο", "zip": 61200}, {"city": "Κοζανη", "zip": 50132}, {"city": "Αιανη", "zip": 50004}, {"city": "Αργος Ορεστικο", "zip": 52200}, {"city": "Βελβεντος", "zip": 50400}, {"city": "Εμποριο Κοζανης", "zip": 50005}, {"city": "Ερατυρα", "zip": 50003}, {"city": "Κοζανη", "zip": 50150}, {"city": "Κροκος", "zip": 50010}, {"city": "Νεαπολη Κοζανης", "zip": 50001}, {"city": "Πενταλοφος", "zip": 50007}, {"city": "Πτολεμαϊδα", "zip": 50200}, {"city": "Σερβια", "zip": 50500}, {"city": "Σιατιστα", "zip": 50300}, {"city": "Τσοτυλι", "zip": 50002}, {"city": "Φιλωτας", "zip": 53070}, {"city": "Κορινθος", "zip": 20132}, {"city": "Αγιοι Θεοδωροι", "zip": 20003}, {"city": "Βραχατι", "zip": 20006}, {"city": "Γκουρα", "zip": 20014}, {"city": "Δερβενι", "zip": 20009}, {"city": "Κιατο", "zip": 20200}, {"city": "Κορινθος", "zip": 20150}, {"city": "Λουτρακι", "zip": 20300}, {"city": "Μεγαρα", "zip": 19100}, {"city": "Νεμεα", "zip": 20500}, {"city": "Ξυλοκαστρο", "zip": 20400}, {"city": "Σοφικο", "zip": 20004}, {"city": "Χιλιομοδι", "zip": 20008}, {"city": "Αμοργος", "zip": 84008}, {"city": "Αναφη", "zip": 84009}, {"city": "Ανδρος", "zip": 84500}, {"city": "Αντιπαρος", "zip": 84007}, {"city": "Γαυριο", "zip": 84501}, {"city": "Εμπορειον", "zip": 84703}, {"city": "Θηρα", "zip": 84700}, {"city": "Ιος", "zip": 84001}, {"city": "Ιουλις", "zip": 84002}, {"city": "Κιμωλος", "zip": 84004}, {"city": "Κυθνος", "zip": 84006}, {"city": "Μηλος", "zip": 84800}, {"city": "Μυκονος", "zip": 84600}, {"city": "Ναξος", "zip": 84300}, {"city": "Ναουσα Παρου", "zip": 84401}, {"city": "Οια", "zip": 84702}, {"city": "Παρος", "zip": 84400}, {"city": "Σεριφος", "zip": 84005}, {"city": "Σικινος", "zip": 84010}, {"city": "Σιφνος", "zip": 84003}, {"city": "Συρος", "zip": 84100}, {"city": "Τηνος", "zip": 84200}, {"city": "Φιλοτι", "zip": 84302}, {"city": "Φολεγανδρος", "zip": 84011}, {"city": "Σπαρτη", "zip": 23100}, {"city": "Αρεοπολη", "zip": 23062}, {"city": "Γυθειο", "zip": 23200}, {"city": "Καστορειο", "zip": 23059}, {"city": "Μολαοι", "zip": 23052}, {"city": "Μονεμβασια", "zip": 23070}, {"city": "Νεαπολη Λακωνιας", "zip": 23053}, {"city": "Ξηροκαμπι", "zip": 23054}, {"city": "Σκαλα", "zip": 23051}, {"city": "Σπαρτη", "zip": 23150}, {"city": "Σταδιο", "zip": 22012}, {"city": "Λαρισα", "zip": 41334}, {"city": "Αγια", "zip": 40003}, {"city": "Αμπελωνας", "zip": 40400}, {"city": "Βελεστινο", "zip": 37500}, {"city": "Δομοκος", "zip": 35010}, {"city": "Ελασσονα", "zip": 40200}, {"city": "Λαρισα", "zip": 41500}, {"city": "Νικαια Λαρισας", "zip": 41005}, {"city": "Συκουριον", "zip": 40006}, {"city": "Τυρναβος", "zip": 40100}, {"city": "Φαρσαλα", "zip": 40300}, {"city": "Αγιος Νικολαος Κρητης", "zip": 72150}, {"city": "Ανω Βιαννος", "zip": 70004}, {"city": "Ελουντα", "zip": 72053}, {"city": "Ιεραπετρα", "zip": 72200}, {"city": "Μακρυγιαλος", "zip": 72055}, {"city": "Νεαπολη Λασιθιου", "zip": 72400}, {"city": "Σητεια", "zip": 72300}, {"city": "Τζερμιαδο", "zip": 72052}, {"city": "Μυτιληνη", "zip": 81131}, {"city": "Αγια Παρασκευη Λεσβου", "zip": 81102}, {"city": "Αγιασος", "zip": 81101}, {"city": "Αγιος Ευστρατιος", "zip": 81500}, {"city": "Αντισσα", "zip": 81103}, {"city": "Ερεσος", "zip": 81105}, {"city": "Καλλονη", "zip": 81107}, {"city": "Μανταμαδος", "zip": 81104}, {"city": "Μηθυμνα", "zip": 81108}, {"city": "Μουδρος", "zip": 81401}, {"city": "Μυρινα", "zip": 81400}, {"city": "Μυτιληνη", "zip": 81150}, {"city": "Παππαδος", "zip": 81106}, {"city": "Πετρα", "zip": 81109}, {"city": "Πλωμαρι", "zip": 81200}, {"city": "Πολιχνιτος", "zip": 81300}, {"city": "Βασιλικη", "zip": 31082}, {"city": "Λευκαδα", "zip": 31100}, {"city": "Μυτικας", "zip": 30019}, {"city": "Νυδρι", "zip": 31084}, {"city": "Βολος", "zip": 38445}, {"city": "Αγρια", "zip": 37300}, {"city": "Αλμυρος", "zip": 37100}, {"city": "Αλοννησος", "zip": 37005}, {"city": "Αργαλαστη", "zip": 37006}, {"city": "Βελεστινο", "zip": 37500}, {"city": "Βολος", "zip": 38500}, {"city": "Δομοκος", "zip": 35010}, {"city": "Ζαγορα", "zip": 37001}, {"city": "Νεα Αγχιαλος", "zip": 37400}, {"city": "Σκιαθος", "zip": 37002}, {"city": "Σκοπελος", "zip": 37003}, {"city": "Σουρπη", "zip": 37008}, {"city": "Καλαματα", "zip": 24133}, {"city": "Ανδριτσαινα", "zip": 27061}, {"city": "Γαργαλιανοι", "zip": 24400}, {"city": "Διαβολιτσι", "zip": 24008}, {"city": "Δωριο", "zip": 24011}, {"city": "Θουρια", "zip": 24009}, {"city": "Καλαματα", "zip": 24150}, {"city": "Καρδαμυλη", "zip": 24022}, {"city": "Κορωνη", "zip": 24004}, {"city": "Κυπαρισσια", "zip": 24500}, {"city": "Μεθωνη Πυλιας", "zip": 24006}, {"city": "Μελιγαλας", "zip": 24002}, {"city": "Μεσσηνη", "zip": 24200}, {"city": "Πεταλιδι", "zip": 24005}, {"city": "Πυλος", "zip": 24001}, {"city": "Φιλιατρα", "zip": 24300}, {"city": "Ξανθη", "zip": 67131}, {"city": "Γενισεα", "zip": 67064}, {"city": "Δραμα", "zip": 66150}, {"city": "Ευλαλο", "zip": 67200}, {"city": "Εχινος", "zip": 67300}, {"city": "Ξανθη", "zip": 67150}, {"city": "Παρανεστι", "zip": 66035}, {"city": "Σταυρουπολη Ξανθης", "zip": 67062}, {"city": "Αριδαια", "zip": 58400}, {"city": "Αρνισσα", "zip": 58002}, {"city": "Γιαννιτσα", "zip": 58100}, {"city": "Εδεσσα", "zip": 58200}, {"city": "Κρυα Βρυση", "zip": 58300}, {"city": "Πελλα", "zip": 58005}, {"city": "Σκυδρα", "zip": 58500}, {"city": "Κατερινη", "zip": 60133}, {"city": "Αιγινιο", "zip": 60300}, {"city": "Κατερινη", "zip": 60150}, {"city": "Λεπτοκαρυα", "zip": 60063}, {"city": "Λιτοχωρο", "zip": 60200}, {"city": "Πλαταμωνας", "zip": 60065}, {"city": "Θεσπρωτικο", "zip": 48300}, {"city": "Καναλακι", "zip": 48062}, {"city": "Λουρος", "zip": 48061}, {"city": "Παργα", "zip": 48060}, {"city": "Πρεβεζα", "zip": 48100}, {"city": "Φιλιππιαδα", "zip": 48200}, {"city": "Ρεθυμνο", "zip": 74133}, {"city": "Αμαρι", "zip": 74061}, {"city": "Ανωγεια", "zip": 74051}, {"city": "Επισκοπη Ρεθυμνης", "zip": 74055}, {"city": "Μυρθιος", "zip": 74060}, {"city": "Περαμα Ρεθυμνης", "zip": 74052}, {"city": "Ρεθυμνο", "zip": 74150}, {"city": "Σπηλι", "zip": 74053}, {"city": "Κομοτηνη", "zip": 69132}, {"city": "Ιασμος", "zip": 69200}, {"city": "Κομοτηνη", "zip": 69150}, {"city": "Ξυλαγανη", "zip": 69400}, {"city": "Σαπες", "zip": 69300}, {"city": "Αγιος Κηρυκος", "zip": 83300}, {"city": "Ευδηλος", "zip": 83302}, {"city": "Καρλοβασι", "zip": 83200}, {"city": "Πυθαγορειο", "zip": 83103}, {"city": "Πυργος Σαμου", "zip": 83104}, {"city": "Ραχες", "zip": 83301}, {"city": "Σαμος", "zip": 83100}, {"city": "Φουρνοι", "zip": 83400}, {"city": "Σερρες", "zip": 62125}, {"city": "Ηρακλεια", "zip": 62400}, {"city": "Κατω Ποροϊα", "zip": 62055}, {"city": "Λαγκαδας", "zip": 57200}, {"city": "Νεα Ζιχνη", "zip": 62042}, {"city": "Νιγριτα", "zip": 62200}, {"city": "Πρωτη", "zip": 62047}, {"city": "Ροδολιβος", "zip": 62041}, {"city": "Σερρες", "zip": 62500}, {"city": "Σιδηροκαστρο", "zip": 62300}, {"city": "Τρικαλα", "zip": 42132}, {"city": "Καλαμπακα", "zip": 42200}, {"city": "Παλαμας", "zip": 43200}, {"city": "Πυλη", "zip": 42032}, {"city": "Τρικαλα", "zip": 42150}, {"city": "Φαρκαδονα", "zip": 42031}, {"city": "Λαμια", "zip": 35132}, {"city": "Αγιος Κωνσταντινος Φθιωτιδας", "zip": 35006}, {"city": "Αμφικλεια", "zip": 35002}, {"city": "Αταλαντη", "zip": 35200}, {"city": "Γραβια", "zip": 33057}, {"city": "Δομοκος", "zip": 35010}, {"city": "Καμενα Βουρλα", "zip": 35008}, {"city": "Κατω Τιθορεα", "zip": 35015}, {"city": "Λαμια", "zip": 35150}, {"city": "Μακρακωμη", "zip": 35011}, {"city": "Μαλεσινα", "zip": 35001}, {"city": "Μαρτινο", "zip": 35005}, {"city": "Μωλος", "zip": 35009}, {"city": "Σπερχειαδα", "zip": 35003}, {"city": "Στυλιδα", "zip": 35300}, {"city": "Αγιος Γερμανος", "zip": 53077}, {"city": "Αμυνταιο", "zip": 53200}, {"city": "Εμποριο Κοζανης", "zip": 50005}, {"city": "Λεχοβο", "zip": 53073}, {"city": "Μακροχωρι Καστοριας", "zip": 52055}, {"city": "Μελιτη", "zip": 53071}, {"city": "Πτολεμαϊδα", "zip": 50200}, {"city": "Φιλωτας", "zip": 53070}, {"city": "Φλωρινα", "zip": 53100}, {"city": "Αμφισσα", "zip": 33100}, {"city": "Αραχοβα", "zip": 32004}, {"city": "Γαλαξιδι", "zip": 33052}, {"city": "Γραβια", "zip": 33057}, {"city": "Δελφοι", "zip": 33054}, {"city": "Ερατεινη", "zip": 33058}, {"city": "Ευπαλιο", "zip": 33056}, {"city": "Ιτεα Φωκιδας", "zip": 33200}, {"city": "Λιδορικι", "zip": 33053}, {"city": "Αγιος Νικολαος Χαλκιδικης", "zip": 63078}, {"city": "Αρναια", "zip": 63074}, {"city": "Βασιλικα", "zip": 57006}, {"city": "Γαλατιστα", "zip": 63073}, {"city": "Δαφνη Αγιου Ορους", "zip": 63087}, {"city": "Ζαγκλιβερι", "zip": 57012}, {"city": "Ιερισσος", "zip": 63075}, {"city": "Καρυες Αγιου Ορους", "zip": 63086}, {"city": "Κασσανδρεια", "zip": 63077}, {"city": "Νεα Καλλικρατεια", "zip": 63080}, {"city": "Νεα Μουδανια", "zip": 63200}, {"city": "Νεος Μαρμαρας", "zip": 63081}, {"city": "Νικητη", "zip": 63088}, {"city": "Πευκοχωρι", "zip": 63085}, {"city": "Πολυγυρος", "zip": 63100}, {"city": "Σταυρος Θεσσαλονικης", "zip": 57014}, {"city": "Συκεα", "zip": 63072}, {"city": "Χανια", "zip": 73134}, {"city": "Αλικιανος", "zip": 73005}, {"city": "Βουκολιες", "zip": 73002}, {"city": "Βρυσες", "zip": 73007}, {"city": "Επισκοπη Ρεθυμνης", "zip": 74055}, {"city": "Καλυβες", "zip": 73003}, {"city": "Κανδανος", "zip": 73004}, {"city": "Κισσαμος", "zip": 73400}, {"city": "Κολυμβαρι", "zip": 73006}, {"city": "Μουρνιες", "zip": 73300}, {"city": "Παλαιοχωρα", "zip": 73001}, {"city": "Πλατανιας Χανιων", "zip": 73014}, {"city": "Σουδα", "zip": 73200}, {"city": "Χανια", "zip": 73500}, {"city": "Χωρα Σφακιων", "zip": 73011}, {"city": "Χιος", "zip": 82132}, {"city": "Βολισσος", "zip": 82103}, {"city": "Καλαμωτη", "zip": 82102}, {"city": "Καρδαμυλα", "zip": 82300}, {"city": "Οινουσσες", "zip": 82101}, {"city": "Χιος", "zip": 82150}, {"city": "Ψαρα", "zip": 82104}]